     3.00           N                   E                   RINEX VERSION / TYPE
BRD_USR             ESA                 20190107 011822  UTCPGM / RUN BY / DATE
 GAL   5.1250E+01  3.1250E-02 -4.3335E-03  0.0000E+00       IONOSPHERIC CORR
GAUT  0.0000000000E+00 0.000000000E+00      0 2035 GSTB   0 TIME SYSTEM CORR
GPGA -2.1245796233E-09 4.440892099E-15  86400 2035 GSTB   0 TIME SYSTEM CORR
                                                            END OF HEADER
E04 2019 01 06 23 40 00-1.947350683622E-04-7.858602657507E-12 0.000000000000E+00
     1.400000000000E+01 3.428125000000E+01 3.569791553290E-09 6.782655271788E-01
     1.670792698860E-06 8.047802839428E-05 5.839392542839E-06 5.440604167938E+03
     8.520000000000E+04 2.607703208923E-08 1.244150006425E+00 3.911554813385E-08
     9.522690418279E-01 2.096250000000E+02 1.999911768261E+00-5.688451232541E-09
     5.889531036893E-10 2.580000000000E+02 2.035000000000E+03 0.000000000000E+00
     3.120000000000E+00 0.000000000000E+00-7.916241884232E-09 0.000000000000E+00
     8.595000000000E+04 0.000000000000E+00 0.000000000000E+00 0.000000000000E+00
E25 2019 01 06 23 40 00 1.931502425577E-03-1.145394890045E-11 0.000000000000E+00
     1.400000000000E+01 1.369062500000E+02 2.516176237411E-09 4.142102738634E-01
     6.357207894325E-06 2.173280809075E-04 1.286156475544E-05 5.440633459091E+03
     8.520000000000E+04 3.725290298462E-09-2.949297770136E+00 1.471489667892E-07
     9.899092803235E-01 7.846875000000E+01-1.382187976420E+00-5.163072205539E-09
    -2.739399821284E-10 2.580000000000E+02 2.035000000000E+03 0.000000000000E+00
     3.120000000000E+00 0.000000000000E+00-1.164153218269E-09 0.000000000000E+00
     8.595000000000E+04 0.000000000000E+00 0.000000000000E+00 0.000000000000E+00
E30 2019 01 06 23 40 00 5.209096241742E-03-3.045386165468E-11 0.000000000000E+00
     1.400000000000E+01 1.127812500000E+02 2.471531520637E-09-3.057705586694E+00
     5.204230546951E-06 2.976267132908E-04 1.241452991962E-05 5.440620546341E+03
     8.520000000000E+04-1.490116119385E-08-2.943268745334E+00 7.450580596924E-09
     9.878922015612E-01 8.756250000000E+01 4.988492294499E-01-5.069854036913E-09
    -1.960795960737E-10 2.580000000000E+02 2.035000000000E+03 0.000000000000E+00
     3.120000000000E+00 0.000000000000E+00-3.026798367500E-09 0.000000000000E+00
     8.595000000000E+04 0.000000000000E+00 0.000000000000E+00 0.000000000000E+00
E04 2019 01 06 23 40 00-1.947355922312E-04-7.858602657507E-12 0.000000000000E+00
     1.400000000000E+01 3.428125000000E+01 3.569791553290E-09 6.782655271788E-01
     1.670792698860E-06 8.047802839428E-05 5.839392542839E-06 5.440604167938E+03
     8.520000000000E+04 2.607703208923E-08 1.244150006425E+00 3.911554813385E-08
     9.522690418279E-01 2.096250000000E+02 1.999911768261E+00-5.688451232541E-09
     5.889531036893E-10 5.210000000000E+02 2.035000000000E+03 0.000000000000E+00
     3.120000000000E+00 0.000000000000E+00-7.916241884232E-09-8.847564458847E-09
     8.597500000000E+04 0.000000000000E+00 0.000000000000E+00 0.000000000000E+00
E25 2019 01 06 23 40 00 1.931502774823E-03-1.143973804574E-11 0.000000000000E+00
     1.400000000000E+01 1.369062500000E+02 2.516176237411E-09 4.142102738634E-01
     6.357207894325E-06 2.173280809075E-04 1.286156475544E-05 5.440633459091E+03
     8.520000000000E+04 3.725290298462E-09-2.949297770136E+00 1.471489667892E-07
     9.899092803235E-01 7.846875000000E+01-1.382187976420E+00-5.163072205539E-09
    -2.739399821284E-10 5.210000000000E+02 2.035000000000E+03 0.000000000000E+00
     3.120000000000E+00 0.000000000000E+00-1.164153218269E-09-1.396983861923E-09
     8.597500000000E+04 0.000000000000E+00 0.000000000000E+00 0.000000000000E+00
E30 2019 01 06 23 40 00 5.209096125327E-03-3.043965079996E-11 0.000000000000E+00
     1.400000000000E+01 1.127812500000E+02 2.471531520637E-09-3.057705586694E+00
     5.204230546951E-06 2.976267132908E-04 1.241452991962E-05 5.440620546341E+03
     8.520000000000E+04-1.490116119385E-08-2.943268745334E+00 7.450580596924E-09
     9.878922015612E-01 8.756250000000E+01 4.988492294499E-01-5.069854036913E-09
    -1.960795960737E-10 5.210000000000E+02 2.035000000000E+03 0.000000000000E+00
     3.120000000000E+00 0.000000000000E+00-3.026798367500E-09-3.492459654808E-09
     8.597500000000E+04 0.000000000000E+00 0.000000000000E+00 0.000000000000E+00
E14 2019 01 06 23 40 00 6.463701953180E-03-5.584865903074E-12 0.000000000000E+00
     1.400000000000E+01 1.362500000000E+01 5.580946754548E-09-1.054294759769E+00
     2.801418304443E-06 1.663821327966E-01 3.548339009285E-06 5.289326858521E+03
     8.520000000000E+04-1.331791281700E-06-1.461750784748E+00 5.148351192474E-06
     8.825500702786E-01 2.816875000000E+02 1.453738095695E+00-8.484639133562E-09
    -1.064330047904E-09 5.210000000000E+02 2.035000000000E+03 0.000000000000E+00
     3.120000000000E+00 4.550000000000E+02 3.329478204250E-08 3.748573362827E-08
     8.603500000000E+04 0.000000000000E+00 0.000000000000E+00 0.000000000000E+00
E33 2019 01 06 23 40 00 8.478721138090E-04 1.421085471520E-14 0.000000000000E+00
     1.400000000000E+01-1.601875000000E+02 2.872262498405E-09 7.865496408468E-01
    -7.549300789833E-06 3.571199486032E-04 1.817941665649E-06 5.440595792770E+03
     8.520000000000E+04-3.539025783539E-08-8.664109298129E-01-1.117587089539E-08
     9.851839803186E-01 3.141562500000E+02-1.511354262589E+00-5.722024059555E-09
    -4.118028675281E-10 5.210000000000E+02 2.035000000000E+03 0.000000000000E+00
     3.120000000000E+00 4.550000000000E+02-8.149072527885E-09-9.080395102501E-09
     8.603500000000E+04 0.000000000000E+00 0.000000000000E+00 0.000000000000E+00
E08 2019 01 06 23 40 00 6.428474443965E-03-7.489120434911E-12 0.000000000000E+00
     1.400000000000E+01 3.350000000000E+01 3.386569635647E-09-9.513140971821E-01
     1.709908246994E-06 2.254026476294E-04 6.007030606270E-06 5.440610708237E+03
     8.520000000000E+04-2.607703208923E-08 1.235461343890E+00-5.029141902924E-08
     9.582122269854E-01 2.077500000000E+02 4.850314795766E-01-5.603447691802E-09
     6.314548740587E-10 2.580000000000E+02 2.035000000000E+03 0.000000000000E+00
     3.120000000000E+00 0.000000000000E+00-8.381903171539E-09 0.000000000000E+00
     8.605000000000E+04 0.000000000000E+00 0.000000000000E+00 0.000000000000E+00
E14 2019 01 06 23 40 00 6.463697529398E-03-5.570655048359E-12 0.000000000000E+00
     1.400000000000E+01 1.362500000000E+01 5.580946754548E-09-1.054294759769E+00
     2.801418304443E-06 1.663821327966E-01 3.548339009285E-06 5.289326858521E+03
     8.520000000000E+04-1.331791281700E-06-1.461750784748E+00 5.148351192474E-06
     8.825500702786E-01 2.816875000000E+02 1.453738095695E+00-8.484639133562E-09
    -1.064330047904E-09 2.580000000000E+02 2.035000000000E+03 0.000000000000E+00
     3.120000000000E+00 5.600000000000E+01 3.329478204250E-08 0.000000000000E+00
     8.605000000000E+04 0.000000000000E+00 0.000000000000E+00 0.000000000000E+00
E33 2019 01 06 23 40 00 8.478728123009E-04 1.421085471520E-14 0.000000000000E+00
     1.400000000000E+01-1.601875000000E+02 2.872262498405E-09 7.865496408468E-01
    -7.549300789833E-06 3.571199486032E-04 1.817941665649E-06 5.440595792770E+03
     8.520000000000E+04-3.539025783539E-08-8.664109298129E-01-1.117587089539E-08
     9.851839803186E-01 3.141562500000E+02-1.511354262589E+00-5.722024059555E-09
    -4.118028675281E-10 2.580000000000E+02 2.035000000000E+03 0.000000000000E+00
     3.120000000000E+00 5.600000000000E+01-8.149072527885E-09 0.000000000000E+00
     8.605000000000E+04 0.000000000000E+00 0.000000000000E+00 0.000000000000E+00
E08 2019 01 06 23 40 00 6.428473629057E-03-7.489120434911E-12 0.000000000000E+00
     1.400000000000E+01 3.350000000000E+01 3.386569635647E-09-9.513140971821E-01
     1.709908246994E-06 2.254026476294E-04 6.007030606270E-06 5.440610708237E+03
     8.520000000000E+04-2.607703208923E-08 1.235461343890E+00-5.029141902924E-08
     9.582122269854E-01 2.077500000000E+02 4.850314795766E-01-5.603447691802E-09
     6.314548740587E-10 5.210000000000E+02 2.035000000000E+03 0.000000000000E+00
     3.120000000000E+00 0.000000000000E+00-8.381903171539E-09-9.778887033463E-09
     8.606500000000E+04 0.000000000000E+00 0.000000000000E+00 0.000000000000E+00
E26 2019 01 06 23 40 00 5.049015278928E-03-4.330047431722E-11 0.000000000000E+00
     1.400000000000E+01-1.591562500000E+02 2.978338345461E-09 2.172099224537E+00
    -7.499009370804E-06 3.249812871218E-04 1.206994056702E-06 5.440610506058E+03
     8.520000000000E+04-2.980232238770E-08-8.574405809390E-01-2.421438694000E-08
     9.783053248807E-01 3.193125000000E+02-2.105073368138E+00-5.775240561951E-09
    -3.953736117551E-10 5.210000000000E+02 2.035000000000E+03 0.000000000000E+00
     3.120000000000E+00 0.000000000000E+00 1.164153218269E-09 1.164153218269E-09
     8.606500000000E+04 0.000000000000E+00 0.000000000000E+00 0.000000000000E+00
E13 2019 01 06 23 40 00 3.814168157987E-04 4.973799150321E-13 0.000000000000E+00
     1.400000000000E+01-1.461250000000E+02 2.839046829125E-09 2.450923465337E+00
    -6.822869181633E-06 3.322593402117E-04 1.249834895134E-06 5.440605340958E+03
     8.520000000000E+04 3.539025783539E-08-8.663751029492E-01-1.862645149231E-08
     9.851872016643E-01 3.231875000000E+02-1.602115334306E+00-5.733095949316E-09
    -3.375140588153E-10 5.210000000000E+02 2.035000000000E+03 0.000000000000E+00
     3.120000000000E+00 4.550000000000E+02-4.656612873077E-09-5.587935447693E-09
     8.609500000000E+04 0.000000000000E+00 0.000000000000E+00 0.000000000000E+00
